COSMOS 1408 DEB         
1 50032U 82092RU  26064.68477978  .00006810  00000+0  13497-3 0  9996
2 50032  82.5664 333.4314 0013596 273.1517  86.8176 15.46722788238856
COSMOS 1408 DEB         
1 50058U 82092SW  26064.24051735  .00047978  00000+0  38272-3 0  9993
2 50058  82.6144 342.5800 0014857 138.8937 221.3448 15.70797033240968
COSMOS 1408 DEB         
1 50404U 82092ADS 26064.65435324  .00141023  00000+0  34022-2 0  9997
2 50404  82.1960 128.9535 0125816 268.5788  90.1038 15.32846089224556
COSMOS 1408 DEB         
1 50621U 82092ALR 26064.21115086  .00039532  00000+0  44451-3 0  9999
2 50621  82.5720 347.9833 0023134 200.3340 159.6999 15.62070761235353
