[{"OBJECT_NAME":"COSMOS 1408 DEB","OBJECT_ID":"1982-092RU","EPOCH":"2026-03-05T16:26:04.972992","MEAN_MOTION":15.46722788,"ECCENTRICITY":0.0013596,"INCLINATION":82.5664,"RA_OF_ASC_NODE":333.4314,"ARG_OF_PERICENTER":273.1517,"MEAN_ANOMALY":86.8176,"EPHEMERIS_TYPE":0,"CLASSIFICATION_TYPE":"U","NORAD_CAT_ID":50032,"ELEMENT_SET_NO":999,"REV_AT_EPOCH":23885,"BSTAR":0.00013497,"MEAN_MOTION_DOT":6.81e-5,"MEAN_MOTION_DDOT":0},{"OBJECT_NAME":"COSMOS 1408 DEB","OBJECT_ID":"1982-092SW","EPOCH":"2026-03-05T05:46:20.699040","MEAN_MOTION":15.70797033,"ECCENTRICITY":0.0014857,"INCLINATION":82.6144,"RA_OF_ASC_NODE":342.58,"ARG_OF_PERICENTER":138.8937,"MEAN_ANOMALY":221.3448,"EPHEMERIS_TYPE":0,"CLASSIFICATION_TYPE":"U","NORAD_CAT_ID":50058,"ELEMENT_SET_NO":999,"REV_AT_EPOCH":24096,"BSTAR":0.00038272,"MEAN_MOTION_DOT":0.00047978,"MEAN_MOTION_DDOT":0},{"OBJECT_NAME":"COSMOS 1408 DEB","OBJECT_ID":"1982-092ADS","EPOCH":"2026-03-05T15:42:16.119936","MEAN_MOTION":15.32846089,"ECCENTRICITY":0.0125816,"INCLINATION":82.196,"RA_OF_ASC_NODE":128.9535,"ARG_OF_PERICENTER":268.5788,"MEAN_ANOMALY":90.1038,"EPHEMERIS_TYPE":0,"CLASSIFICATION_TYPE":"U","NORAD_CAT_ID":50404,"ELEMENT_SET_NO":999,"REV_AT_EPOCH":22455,"BSTAR":0.0034022,"MEAN_MOTION_DOT":0.00141023,"MEAN_MOTION_DDOT":0},{"OBJECT_NAME":"COSMOS 1408 DEB","OBJECT_ID":"1982-092ALR","EPOCH":"2026-03-05T05:04:03.434304","MEAN_MOTION":15.62070761,"ECCENTRICITY":0.0023134,"INCLINATION":82.572,"RA_OF_ASC_NODE":347.9833,"ARG_OF_PERICENTER":200.334,"MEAN_ANOMALY":159.6999,"EPHEMERIS_TYPE":0,"CLASSIFICATION_TYPE":"U","NORAD_CAT_ID":50621,"ELEMENT_SET_NO":999,"REV_AT_EPOCH":23535,"BSTAR":0.00044451,"MEAN_MOTION_DOT":0.00039532,"MEAN_MOTION_DDOT":0}]
